GLOBALSTAR M079 [+]     
1 37188U 10054A   22320.76820505 -.00000101  00000+0  17920-4 0  9994
2 37188  52.0017 131.7068 0000987  89.0184 283.7665 12.62257254557318
GLOBALSTAR M074 [+]     
1 37189U 10054B   22321.42922990 -.00000095  00000+0  48373-4 0  9998
2 37189  51.9990 129.1640 0000999 102.7366 274.8975 12.62264542558079
GLOBALSTAR M076 [+]     
1 37190U 10054C   22321.45717007 -.00000083  00000+0  11784-3 0  9996
2 37190  52.0003 129.1636 0001303  91.0385 293.7816 12.62269464558087
GLOBALSTAR M077 [+]     
1 37191U 10054D   22321.08050819 -.00000097  00000+0  39358-4 0  9990
2 37191  52.0070  86.8953 0000865 112.7248  58.3863 12.62266670558784
GLOBALSTAR M075 [+]     
1 37192U 10054E   22320.76926631 -.00000101  00000+0  15390-4 0  9995
2 37192  51.9922 174.0392 0001114  74.5595   3.5900 12.62269775556864
GLOBALSTAR M073 [+]     
1 37193U 10054F   22320.69663987 -.00000100  00000+0  21187-4 0  9990
2 37193  52.0057  87.3589 0000867 112.2680 354.9738 12.62268777558684
GLOBALSTAR M083 [+]     
1 37739U 11033A   22321.09774245 -.00000100  00000+0  21302-4 0  9998
2 37739  51.9881  36.1577 0000245 110.5172 321.5888 12.62265518528110
GLOBALSTAR M088 [+]     
1 37740U 11033B   22321.08125466 -.00000084  00000+0  11113-3 0  9993
2 37740  51.9738 302.4950 0000651  27.6724  89.0199 12.62267179523581
GLOBALSTAR M091 [+]     
1 37741U 11033C   22321.15103259 -.00000094  00000+0  54772-4 0  9998
2 37741  51.9999 264.1501 0000806  35.3338 337.7805 12.62268895524355
GLOBALSTAR M085 [+]     
1 37742U 11033D   22321.08630953 -.00000099  00000+0  27327-4 0  9998
2 37742  51.9858 216.2209 0000945  60.4590  79.0842 12.62269261525082
GLOBALSTAR M081 [+]     
1 37743U 11033E   22321.11469153 -.00000094  00000+0  56994-4 0  9992
2 37743  51.9951 218.3412 0001168  57.8506  89.5866 12.62264966525125
GLOBALSTAR M089 [+]     
1 37744U 11033F   22320.82281623 -.00000099  00000+0  27162-4 0  9994
2 37744  51.9906 173.6341 0001280  92.3829 348.8314 12.62270021525552
GLOBALSTAR M084 [+]     
1 38040U 11080A   22320.50406795 -.00000107  00000+0 -15563-4 0  9993
2 38040  52.0030  41.3918 0000728 120.6589 251.1188 12.62269552503498
GLOBALSTAR M080 [+]     
1 38041U 11080B   22320.55745545 -.00000098  00000+0  30346-4 0  9992
2 38041  52.0080  42.5051 0000833 118.5214 255.3100 12.62269819503769
GLOBALSTAR M082 [+]     
1 38042U 11080C   22321.29766581 -.00000088  00000+0  86887-4 0  9998
2 38042  52.0097 355.5992 0000197 291.1866 148.9634 12.62266088504599
GLOBALSTAR M092 [+]     
1 38043U 11080D   22321.33717323 -.00000102  00000+0  71088-5 0  9999
2 38043  52.0083  85.8037 0001050 127.3179 250.6255 12.62265012503094
GLOBALSTAR M090 [+]     
1 38044U 11080E   22321.07439836 -.00000088  00000+0  89576-4 0  9994
2 38044  51.9902 351.3041 0000244  49.0685 335.5596 12.62267116504555
GLOBALSTAR M086 [+]     
1 38045U 11080F   22321.10302972 -.00000087  00000+0  96115-4 0  9995
2 38045  51.9915 351.6936 0001310  46.0731 349.4243 12.62266560504566
GLOBALSTAR M097 [+]     
1 39072U 13005A   22320.56745833 -.00000091  00000+0  69366-4 0  9994
2 39072  52.0047 266.9104 0000818  35.1155 324.9766 12.62265746451723
GLOBALSTAR M093 [+]     
1 39073U 13005B   22321.33283355 -.00000093  00000+0  59760-4 0  9996
2 39073  51.9812 259.3938 0000992  30.0228 330.0695 12.62266217451814
GLOBALSTAR M094 [+]     
1 39074U 13005C   22320.85776158 -.00000097  00000+0  38451-4 0  9999
2 39074  51.9933 174.2814 0001098  77.0852 283.0138 12.62265995453261
GLOBALSTAR M096 [+]     
1 39075U 13005D   22321.10858498 -.00000096  00000+0  41061-4 0  9997
2 39075  52.0065 221.2950 0001080  54.1292 305.9675 12.62268078452544
GLOBALSTAR M078 [+]     
1 39076U 13005E   22320.68634463 -.00000087  00000+0  94397-4 0  9994
2 39076  51.9880 308.3736 0000402 262.4016  97.6805 12.62275051450763
GLOBALSTAR M095 [+]     
1 39077U 13005F   22321.34577689 -.00000089  00000+0  81589-4 0  9996
2 39077  51.9805 304.0274 0000567 337.7316  22.3526 12.62263798451066
GLOBALSTAR FM15 [+]     
1 52888U 22064A   22320.59564728 -.00000128  00000+0  00000+0 0  9990
2 52888  51.9791  65.8278 0009013 339.1958  20.8579 13.37544822 20093
